[{"OBJECT_NAME":"STARLINK-30887","OBJECT_ID":"2023-178W","EPOCH":"2026-03-09T05:20:10.641696","MEAN_MOTION":15.3018891,"ECCENTRICITY":9.249e-5,"INCLINATION":53.1618,"RA_OF_ASC_NODE":3.5105,"ARG_OF_PERICENTER":88.339,"MEAN_ANOMALY":271.7716,"EPHEMERIS_TYPE":0,"CLASSIFICATION_TYPE":"U","NORAD_CAT_ID":58394,"ELEMENT_SET_NO":999,"REV_AT_EPOCH":12979,"BSTAR":3.0951253e-5,"MEAN_MOTION_DOT":5.58e-6,"MEAN_MOTION_DDOT":0},{"OBJECT_NAME":"TRANSPORTER-10 OBJECT AG","OBJECT_ID":"2024-043AG","EPOCH":"2026-03-09T22:12:45.387648","MEAN_MOTION":15.30759727,"ECCENTRICITY":0.00093005,"INCLINATION":97.5471,"RA_OF_ASC_NODE":205.7101,"ARG_OF_PERICENTER":226.5958,"MEAN_ANOMALY":133.4509,"EPHEMERIS_TYPE":0,"CLASSIFICATION_TYPE":"U","NORAD_CAT_ID":59128,"ELEMENT_SET_NO":999,"REV_AT_EPOCH":11192,"BSTAR":0.00032170115,"MEAN_MOTION_DOT":9.498e-5,"MEAN_MOTION_DDOT":0}]
